NORAD_CAT_ID,OBJECT_NAME,OBJECT_TYPE,EPOCH,MEAN_MOTION,ECCENTRICITY,INCLINATION,RA_OF_ASC_NODE,ARG_OF_PERICENTER,MEAN_ANOMALY,BSTAR,MEAN_MOTION_DOT,MEAN_MOTION_DDOT,TLE_LINE0,TLE_LINE1,TLE_LINE2,SEMIMAJOR_AXIS,PERIOD,APOGEE,PERIGEE,DECAYED
51985.0,STARLINK-3651,PAYLOAD,2024-05-17 15:53:00,15.08842052,0.0001567,53.2168,126.5987,73.4284,286.688,-0.00010275,-1.923e-05,0.0,0 STARLINK-3651,1 51985U 22025AF  24138.66181627 -.00001923  00000-0 -10275-3 0  9999,2 51985  53.2168 126.5987 0001567  73.4284 286.6880 15.08842052122356,6917.874,95.437,540.823,538.655,0.0
51985.0,STARLINK-3651,PAYLOAD,2024-05-18 04:36:05,15.08846053,0.0001411,53.2165,124.2176,69.6153,290.4991,0.00014895,2.084e-05,0.0,0 STARLINK-3651,1 51985U 22025AF  24139.19172791  .00002084  00000-0  14895-3 0  9999,2 51985  53.2165 124.2176 0001411  69.6153 290.4991 15.08846053122438,6917.862,95.437,540.703,538.751,0.0
51985.0,STARLINK-3651,PAYLOAD,2024-05-18 06:11:28,15.08851125,0.0001393,53.2168,123.9228,71.1276,288.9867,0.00020855,3.034e-05,0.0,0 STARLINK-3651,1 51985U 22025AF  24139.25796467  .00003034  00000-0  20855-3 0  9997,2 51985  53.2168 123.9228 0001393  71.1276 288.9867 15.08851125121358,6917.846,95.437,540.675,538.748,0.0
51985.0,STARLINK-3651,PAYLOAD,2024-05-18 15:43:47,15.08843958,0.0001398,53.2153,122.139,78.4862,281.6287,0.00021131,3.077e-05,0.0,0 STARLINK-3651,1 51985U 22025AF  24139.65541175  .00003077  00000-0  21131-3 0  9990,2 51985  53.2153 122.1390 0001398  78.4862 281.6287 15.08843958122508,6917.868,95.437,540.7,538.766,0.0
51985.0,STARLINK-3651,PAYLOAD,2024-05-19 07:37:38,15.08846031,0.0001526,53.2175,119.1668,84.7515,275.3651,0.00021017,3.059e-05,0.0,0 STARLINK-3651,1 51985U 22025AF  24140.31780789  .00003059  00000-0  21017-3 0  9994,2 51985  53.2175 119.1668 0001526  84.7515 275.3651 15.08846031121514,6917.862,95.437,540.783,538.671,0.0
51985.0,STARLINK-3651,PAYLOAD,2024-05-20 04:17:40,15.08841559,0.0001489,53.2172,115.3009,88.6898,271.4265,-7.5983e-05,-1.497e-05,0.0,0 STARLINK-3651,1 51985U 22025AF  24141.17893902 -.00001497  00000-0 -75983-4 0  9999,2 51985  53.2172 115.3009 0001489  88.6898 271.4265 15.08841559122736,6917.876,95.437,540.771,538.711,0.0
51985.0,STARLINK-3651,PAYLOAD,2024-05-20 07:28:26,15.08842294,0.0001546,53.2172,114.7061,89.0092,271.1077,-7.0522e-05,-1.41e-05,0.0,0 STARLINK-3651,1 51985U 22025AF  24141.31141814 -.00001410  00000-0 -70522-4 0  9992,2 51985  53.2172 114.7061 0001546  89.0092 271.1077 15.08842294121668,6917.873,95.437,540.808,538.669,0.0
51985.0,STARLINK-3651,PAYLOAD,2024-05-21 07:19:13,15.08843721,0.0001492,53.2173,110.2449,100.0573,260.0588,-8.3891e-06,-4.22e-06,0.0,0 STARLINK-3651,1 51985U 22025AF  24142.30501626 -.00000422  00000-0 -83891-5 0  9999,2 51985  53.2173 110.2449 0001492 100.0573 260.0588 15.08843721122906,6917.869,95.437,540.766,538.702,0.0
51985.0,STARLINK-3651,PAYLOAD,2024-05-22 03:59:14,15.08839585,0.0001539,53.2174,106.379,99.665,260.4516,0.00013359,1.839e-05,0.0,0 STARLINK-3651,1 51985U 22025AF  24143.16613659  .00001839  00000-0  13359-3 0  9995,2 51985  53.2174 106.3790 0001539  99.6650 260.4516 15.08839585121944,6917.882,95.438,540.811,538.682,0.0
51985.0,STARLINK-3651,PAYLOAD,2024-05-22 21:28:28,15.08843685,0.0001528,53.2177,103.1074,86.4649,273.6517,7.6765e-05,9.34e-06,0.0,0 STARLINK-3651,1 51985U 22025AF  24143.89477729  .00000934  00000-0  76765-4 0  9997,2 51985  53.2177 103.1074 0001528  86.4649 273.6517 15.08843685123144,6917.869,95.437,540.791,538.677,0.0
51985.0,STARLINK-3651,PAYLOAD,2024-05-23 07:00:47,15.08847297,0.0001421,53.2177,101.3219,99.0934,261.0219,9.7584e-05,1.266e-05,0.0,0 STARLINK-3651,1 51985U 22025AF  24144.29221223  .00001266  00000-0  97584-4 0  9999,2 51985  53.2177 101.3219 0001421  99.0934 261.0219 15.08847297122113,6917.858,95.437,540.706,538.74,0.0
51985.0,STARLINK-3651,PAYLOAD,2024-05-24 03:40:48,15.08846467,0.0001437,53.218,97.4507,98.4741,261.6414,-2.6466e-05,-7.09e-06,0.0,0 STARLINK-3651,1 51985U 22025AF  24145.15333467 -.00000709  00000-0 -26466-4 0  9993,2 51985  53.2180  97.4507 0001437  98.4741 261.6414 15.08846467123334,6917.861,95.437,540.72,538.732,0.0
51985.0,STARLINK-3651,PAYLOAD,2024-05-24 06:51:34,15.08845146,0.0001504,53.2182,96.8578,103.1397,256.9763,-4.5105e-05,-1.006e-05,0.0,0 STARLINK-3651,1 51985U 22025AF  24145.28581555 -.00001006  00000-0 -45105-4 0  9992,2 51985  53.2182  96.8578 0001504 103.1397 256.9763 15.08845146122261,6917.865,95.437,540.77,538.689,0.0
51985.0,STARLINK-3651,PAYLOAD,2024-05-24 21:10:03,15.08838704,0.0001485,53.2175,94.182,109.7321,250.3832,-5.6103e-05,-1.181e-05,0.0,0 STARLINK-3651,1 51985U 22025AF  24145.88198114 -.00001181  00000-0 -56103-4 0  9997,2 51985  53.2175  94.1820 0001485 109.7321 250.3832 15.08838704122358,6917.884,95.438,540.777,538.722,0.0
51985.0,STARLINK-3651,PAYLOAD,2024-05-25 01:56:12,15.08839405,0.0001583,53.2178,93.2893,115.5852,244.5304,-6.6189e-05,-1.341e-05,0.0,0 STARLINK-3651,1 51985U 22025AF  24146.08070071 -.00001341  00000-0 -66189-4 0  9994,2 51985  53.2178  93.2893 0001583 115.5852 244.5304 15.08839405123476,6917.882,95.438,540.842,538.652,0.0
51985.0,STARLINK-3651,PAYLOAD,2024-05-25 13:03:55,15.08823543,0.0001043,53.2173,91.2126,96.9429,263.1682,-0.00017478,-3.067e-05,0.0,0 STARLINK-3651,1 51985U 22025AF  24146.54439274 -.00003067  00000-0 -17478-3 0  9992,2 51985  53.2173  91.2126 0001043  96.9429 263.1682 15.08823543123541,6917.931,95.439,540.517,539.074,0.0
51985.0,STARLINK-3651,PAYLOAD,2024-05-26 03:22:23,15.08837876,0.0001265,53.2173,88.5376,102.8539,257.2595,-6.125e-06,-3.85e-06,0.0,0 STARLINK-3651,1 51985U 22025AF  24147.14054515 -.00000385  00000-0 -61250-5 0  9999,2 51985  53.2173  88.5376 0001265 102.8539 257.2595 15.08837876123633,6917.887,95.438,540.627,538.877,0.0
51985.0,STARLINK-3651,PAYLOAD,2024-05-26 04:57:46,15.08839253,0.0001243,53.2175,88.2405,101.1129,259.0003,6.8025e-06,-1.8e-06,0.0,0 STARLINK-3651,1 51985U 22025AF  24147.20678403 -.00000180  00000-0  68025-5 0  9993,2 51985  53.2175  88.2405 0001243 101.1129 259.0003 15.08839253122553,6917.883,95.438,540.608,538.888,0.0
51985.0,STARLINK-3651,PAYLOAD,2024-05-27 04:48:32,15.08842005,0.0001481,53.2183,83.7784,93.6058,266.5103,0.00012853,1.758e-05,0.0,0 STARLINK-3651,1 51985U 22025AF  24148.20038120  .00001758  00000-0  12853-3 0  9997,2 51985  53.2183  83.7784 0001481  93.6058 266.5103 15.08842005123792,6917.874,95.437,540.764,538.715,0.0
51985.0,STARLINK-3651,PAYLOAD,2024-05-27 12:45:28,15.08843514,0.0001451,53.2187,82.2894,86.0129,274.1029,0.00014048,1.949e-05,0.0,0 STARLINK-3651,1 51985U 22025AF  24148.53157908  .00001949  00000-0  14048-3 0  9999,2 51985  53.2187  82.2894 0001451  86.0129 274.1029 15.08843514122757,6917.87,95.437,540.738,538.731,0.0
51985.0,STARLINK-3651,PAYLOAD,2024-05-28 12:36:15,15.08843082,0.0001339,53.2178,77.8323,87.5668,272.5478,4.5624e-05,4.38e-06,0.0,0 STARLINK-3651,1 51985U 22025AF  24149.52518294  .00000438  00000-0  45624-4 0  9995,2 51985  53.2178  77.8323 0001339  87.5668 272.5478 15.08843082123990,6917.871,95.437,540.662,538.81,0.0
51985.0,STARLINK-3651,PAYLOAD,2024-05-29 01:19:20,15.08844905,0.0001419,53.2178,75.4545,85.6029,274.5125,-1.5825e-05,-5.4e-06,0.0,0 STARLINK-3651,1 51985U 22025AF  24150.05510411 -.00000540  00000-0 -15825-4 0  9994,2 51985  53.2178  75.4545 0001419  85.6029 274.5125 15.08844905122983,6917.865,95.437,540.712,538.749,0.0
51985.0,STARLINK-3651,PAYLOAD,2024-05-29 01:19:21,15.08831349,0.0001484,53.2179,75.4545,88.8557,271.2605,0.00016127,2.279e-05,0.0,0 STARLINK-3651,1 51985U 22025AF  24150.05510543  .00002279  00000-0  16127-3 0  9994,2 51985  53.2179  75.4545 0001484  88.8557 271.2605 15.08831349124074,6917.907,95.438,540.798,538.745,0.0
51985.0,STARLINK-3651,PAYLOAD,2024-05-29 21:59:22,15.08839532,0.0001462,53.2179,71.591,82.4595,277.6563,3.8128e-07,-2.82e-06,0.0,0 STARLINK-3651,1 51985U 22025AF  24150.91622733 -.00000282  00000-0  38128-6 0  9995,2 51985  53.2179  71.5910 0001462  82.4595 277.6563 15.08839532123114,6917.882,95.438,540.758,538.735,0.0
51985.0,STARLINK-3651,PAYLOAD,2024-05-30 01:10:08,15.08840744,0.000153,53.2182,70.9955,78.5126,281.6038,9.9472e-06,-1.3e-06,0.0,0 STARLINK-3651,1 51985U 22025AF  24151.04870632 -.00000130  00000-0  99472-5 0  9993,2 51985  53.2182  70.9955 0001530  78.5126 281.6038 15.08840744123133,6917.878,95.438,540.802,538.685,0.0
51985.0,STARLINK-3651,PAYLOAD,2024-05-31 04:11:40,15.08847215,0.0001512,53.2184,65.9353,83.3176,276.7988,9.2004e-05,1.177e-05,0.0,0 STARLINK-3651,1 51985U 22025AF  24152.17477678  .00001177  00000-0  92004-4 0  9995,2 51985  53.2184  65.9353 0001512  83.3176 276.7988 15.08847215124398,6917.858,95.437,540.769,538.677,0.0
51985.0,STARLINK-3651,PAYLOAD,2024-05-31 21:40:55,15.08839618,0.0001557,53.2188,62.6638,99.2323,260.8845,3.2298e-05,2.26e-06,0.0,0 STARLINK-3651,1 51985U 22025AF  24152.90342141  .00000226  00000-0  32298-4 0  9995,2 51985  53.2188  62.6638 0001557  99.2323 260.8845 15.08839618123417,6917.882,95.438,540.824,538.669,0.0
51985.0,STARLINK-3651,PAYLOAD,2024-06-01 04:02:27,15.08845656,0.0001331,53.2183,61.4772,83.7576,276.3567,5.0803e-05,5.21e-06,0.0,0 STARLINK-3651,1 51985U 22025AF  24153.16837736  .00000521  00000-0  50803-4 0  9993,2 51985  53.2183  61.4772 0001331  83.7576 276.3567 15.08845656124543,6917.863,95.437,540.649,538.807,0.0
51985.0,STARLINK-3651,PAYLOAD,2024-06-01 10:24:00,15.0883705,0.0001244,53.2174,60.2852,78.1627,281.9504,-1.853e-05,-5.83e-06,0.0,0 STARLINK-3651,1 51985U 22025AF  24153.43334467 -.00000583  00000-0 -18530-4 0  9997,2 51985  53.2174  60.2852 0001244  78.1627 281.9504 15.08837050124583,6917.889,95.438,540.615,538.894,0.0
51985.0,STARLINK-3651,PAYLOAD,2024-06-02 10:14:48,15.0883813,0.0001224,53.2176,55.8255,79.9119,280.2012,-7.4344e-06,-4.06e-06,0.0,0 STARLINK-3651,1 51985U 22025AF  24154.42694651 -.00000406  00000-0 -74344-5 0  9991,2 51985  53.2176  55.8255 0001224  79.9119 280.2012 15.08838130123647,6917.886,95.438,540.598,538.904,0.0
